[
  {
    "OBJECT_NAME": "STARLINK-30039",
    "OBJECT_ID": "23107M",
    "EPOCH": "2025-11-11T06:50:04.451136",
    "MEAN_MOTION": 15.02535061,
    "ECCENTRICITY": 0.0001264,
    "INCLINATION": 43.0053,
    "RA_OF_ASC_NODE": 262.2219,
    "ARG_OF_PERICENTER": 266.3926,
    "MEAN_ANOMALY": 93.6772,
    "EPHEMERIS_TYPE": 0,
    "CLASSIFICATION_TYPE": "U",
    "NORAD_CAT_ID": 57468,
    "ELEMENT_SET_NO": 999,
    "REV_AT_EPOCH": 12730,
    "BSTAR": 8.737200000000002e-06,
    "MEAN_MOTION_DOT": -8.6e-07,
    "MEAN_MOTION_DDOT": 0.0,
    "TLE_LINE1": "1 57468U 23107M   25315.28477374 -.00000086  00000+0  87372-5 0  9997",
    "TLE_LINE2": "2 57468  43.0053 262.2219 0001264 266.3926  93.6772 15.02535061127303",
    "COMMENT": "Grouped by shell and plane from TLE"
  },
  {
    "OBJECT_NAME": "STARLINK-30171",
    "OBJECT_ID": "23107N",
    "EPOCH": "2025-11-11T05:04:45.415200",
    "MEAN_MOTION": 15.02542075,
    "ECCENTRICITY": 0.0001498,
    "INCLINATION": 43.0069,
    "RA_OF_ASC_NODE": 262.5379,
    "ARG_OF_PERICENTER": 268.5528,
    "MEAN_ANOMALY": 91.5143,
    "EPHEMERIS_TYPE": 0,
    "CLASSIFICATION_TYPE": "U",
    "NORAD_CAT_ID": 57469,
    "ELEMENT_SET_NO": 999,
    "REV_AT_EPOCH": 12729,
    "BSTAR": 0.0,
    "MEAN_MOTION_DOT": -9.4e-06,
    "MEAN_MOTION_DDOT": 0.0,
    "TLE_LINE1": "1 57469U 23107N   25315.21163675 -.00000940  00000+0 -54531-4 0  9997",
    "TLE_LINE2": "2 57469  43.0069 262.5379 0001498 268.5528  91.5143 15.02542075127292",
    "COMMENT": "Grouped by shell and plane from TLE"
  },
  {
    "OBJECT_NAME": "STARLINK-30186",
    "OBJECT_ID": "23107P",
    "EPOCH": "2025-11-11T06:45:16.828128",
    "MEAN_MOTION": 15.02544325,
    "ECCENTRICITY": 9.94e-05,
    "INCLINATION": 43.0024,
    "RA_OF_ASC_NODE": 262.1993,
    "ARG_OF_PERICENTER": 274.8648,
    "MEAN_ANOMALY": 85.2081,
    "EPHEMERIS_TYPE": 0,
    "CLASSIFICATION_TYPE": "U",
    "NORAD_CAT_ID": 57470,
    "ELEMENT_SET_NO": 999,
    "REV_AT_EPOCH": 12730,
    "BSTAR": 0.0003063,
    "MEAN_MOTION_DOT": 3.937e-05,
    "MEAN_MOTION_DDOT": 0.0,
    "TLE_LINE1": "1 57470U 23107P   25315.28144477  .00003937  00000+0  30630-3 0  9995",
    "TLE_LINE2": "2 57470  43.0024 262.1993 0000994 274.8648  85.2081 15.02544325127309",
    "COMMENT": "Grouped by shell and plane from TLE"
  },
  {
    "OBJECT_NAME": "STARLINK-30204",
    "OBJECT_ID": "23107R",
    "EPOCH": "2025-11-11T04:59:56.600736",
    "MEAN_MOTION": 15.02558017,
    "ECCENTRICITY": 0.000178,
    "INCLINATION": 43.007,
    "RA_OF_ASC_NODE": 262.5051,
    "ARG_OF_PERICENTER": 276.1076,
    "MEAN_ANOMALY": 83.9563,
    "EPHEMERIS_TYPE": 0,
    "CLASSIFICATION_TYPE": "U",
    "NORAD_CAT_ID": 57472,
    "ELEMENT_SET_NO": 999,
    "REV_AT_EPOCH": 12729,
    "BSTAR": 4.7515e-05,
    "MEAN_MOTION_DOT": 4.38e-06,
    "MEAN_MOTION_DDOT": 0.0,
    "TLE_LINE1": "1 57472U 23107R   25315.20829399  .00000438  00000+0  47515-4 0  9996",
    "TLE_LINE2": "2 57472  43.0070 262.5051 0001780 276.1076  83.9563 15.02558017127296",
    "COMMENT": "Grouped by shell and plane from TLE"
  },
  {
    "OBJECT_NAME": "STARLINK-30187",
    "OBJECT_ID": "23107S",
    "EPOCH": "2025-11-11T06:30:53.647200",
    "MEAN_MOTION": 15.02530809,
    "ECCENTRICITY": 0.0001442,
    "INCLINATION": 43.0039,
    "RA_OF_ASC_NODE": 262.1107,
    "ARG_OF_PERICENTER": 266.7747,
    "MEAN_ANOMALY": 93.2931,
    "EPHEMERIS_TYPE": 0,
    "CLASSIFICATION_TYPE": "U",
    "NORAD_CAT_ID": 57473,
    "ELEMENT_SET_NO": 999,
    "REV_AT_EPOCH": 12730,
    "BSTAR": 5.0471e-05,
    "MEAN_MOTION_DOT": 4.78e-06,
    "MEAN_MOTION_DDOT": 0.0,
    "TLE_LINE1": "1 57473U 23107S   25315.27145425  .00000478  00000+0  50471-4 0  9994",
    "TLE_LINE2": "2 57473  43.0039 262.1107 0001442 266.7747  93.2931 15.02530809127309",
    "COMMENT": "Grouped by shell and plane from TLE"
  },
  {
    "OBJECT_NAME": "STARLINK-30155",
    "OBJECT_ID": "23107U",
    "EPOCH": "2025-11-11T06:16:30.427392",
    "MEAN_MOTION": 15.0254155,
    "ECCENTRICITY": 0.0001194,
    "INCLINATION": 43.0043,
    "RA_OF_ASC_NODE": 262.0472,
    "ARG_OF_PERICENTER": 263.3538,
    "MEAN_ANOMALY": 96.7169,
    "EPHEMERIS_TYPE": 0,
    "CLASSIFICATION_TYPE": "U",
    "NORAD_CAT_ID": 57475,
    "ELEMENT_SET_NO": 999,
    "REV_AT_EPOCH": 12730,
    "BSTAR": 0.0,
    "MEAN_MOTION_DOT": -5.79e-06,
    "MEAN_MOTION_DDOT": 0.0,
    "TLE_LINE1": "1 57475U 23107U   25315.26146328 -.00000579  00000+0 -27815-4 0  9998",
    "TLE_LINE2": "2 57475  43.0043 262.0472 0001194 263.3538  96.7169 15.02541550127301",
    "COMMENT": "Grouped by shell and plane from TLE"
  },
  {
    "OBJECT_NAME": "STARLINK-30161",
    "OBJECT_ID": "23107V",
    "EPOCH": "2025-11-11T04:35:58.827840",
    "MEAN_MOTION": 15.02529813,
    "ECCENTRICITY": 0.0001307,
    "INCLINATION": 43.0056,
    "RA_OF_ASC_NODE": 262.384,
    "ARG_OF_PERICENTER": 265.5775,
    "MEAN_ANOMALY": 94.4918,
    "EPHEMERIS_TYPE": 0,
    "CLASSIFICATION_TYPE": "U",
    "NORAD_CAT_ID": 57476,
    "ELEMENT_SET_NO": 999,
    "REV_AT_EPOCH": 12729,
    "BSTAR": 2.588e-05,
    "MEAN_MOTION_DOT": 1.46e-06,
    "MEAN_MOTION_DDOT": 0.0,
    "TLE_LINE1": "1 57476U 23107V   25315.19165310  .00000146  00000+0  25880-4 0  9991",
    "TLE_LINE2": "2 57476  43.0056 262.3840 0001307 265.5775  94.4918 15.02529813127294",
    "COMMENT": "Grouped by shell and plane from TLE"
  },
  {
    "OBJECT_NAME": "STARLINK-30176",
    "OBJECT_ID": "23107W",
    "EPOCH": "2025-11-11T04:32:47.285088",
    "MEAN_MOTION": 15.02537323,
    "ECCENTRICITY": 0.0001172,
    "INCLINATION": 43.0031,
    "RA_OF_ASC_NODE": 262.3678,
    "ARG_OF_PERICENTER": 258.9716,
    "MEAN_ANOMALY": 101.0995,
    "EPHEMERIS_TYPE": 0,
    "CLASSIFICATION_TYPE": "U",
    "NORAD_CAT_ID": 57477,
    "ELEMENT_SET_NO": 999,
    "REV_AT_EPOCH": 12729,
    "BSTAR": 0.00012123,
    "MEAN_MOTION_DOT": 1.434e-05,
    "MEAN_MOTION_DDOT": 0.0,
    "TLE_LINE1": "1 57477U 23107W   25315.18943617  .00001434  00000+0  12123-3 0  9991",
    "TLE_LINE2": "2 57477  43.0031 262.3678 0001172 258.9716 101.0995 15.02537323127293",
    "COMMENT": "Grouped by shell and plane from TLE"
  },
  {
    "OBJECT_NAME": "STARLINK-30396",
    "OBJECT_ID": "23151A",
    "EPOCH": "2025-11-11T05:33:29.573856",
    "MEAN_MOTION": 15.02539414,
    "ECCENTRICITY": 9.07e-05,
    "INCLINATION": 43.0035,
    "RA_OF_ASC_NODE": 262.5357,
    "ARG_OF_PERICENTER": 276.3537,
    "MEAN_ANOMALY": 83.7202,
    "EPHEMERIS_TYPE": 0,
    "CLASSIFICATION_TYPE": "U",
    "NORAD_CAT_ID": 57964,
    "ELEMENT_SET_NO": 999,
    "REV_AT_EPOCH": 11791,
    "BSTAR": 0.00010923,
    "MEAN_MOTION_DOT": 1.272e-05,
    "MEAN_MOTION_DDOT": 0.0,
    "TLE_LINE1": "1 57964U 23151A   25315.23159229  .00001272  00000+0  10923-3 0  9991",
    "TLE_LINE2": "2 57964  43.0035 262.5357 0000907 276.3537  83.7202 15.02539414117912",
    "COMMENT": "Grouped by shell and plane from TLE"
  },
  {
    "OBJECT_NAME": "STARLINK-30524",
    "OBJECT_ID": "23151B",
    "EPOCH": "2025-11-11T04:51:56.748096",
    "MEAN_MOTION": 15.02532263,
    "ECCENTRICITY": 9.33e-05,
    "INCLINATION": 43.0036,
    "RA_OF_ASC_NODE": 262.3265,
    "ARG_OF_PERICENTER": 262.857,
    "MEAN_ANOMALY": 97.2166,
    "EPHEMERIS_TYPE": 0,
    "CLASSIFICATION_TYPE": "U",
    "NORAD_CAT_ID": 57965,
    "ELEMENT_SET_NO": 999,
    "REV_AT_EPOCH": 11791,
    "BSTAR": 6.488300000000001e-05,
    "MEAN_MOTION_DOT": 6.73e-06,
    "MEAN_MOTION_DDOT": 0.0,
    "TLE_LINE1": "1 57965U 23151B   25315.20274014  .00000673  00000+0  64883-4 0  9998",
    "TLE_LINE2": "2 57965  43.0036 262.3265 0000933 262.8570  97.2166 15.02532263117910",
    "COMMENT": "Grouped by shell and plane from TLE"
  },
  {
    "OBJECT_NAME": "STARLINK-30521",
    "OBJECT_ID": "23151C",
    "EPOCH": "2025-11-11T05:03:05.487552",
    "MEAN_MOTION": 15.02543345,
    "ECCENTRICITY": 0.0001836,
    "INCLINATION": 43.008,
    "RA_OF_ASC_NODE": 262.3716,
    "ARG_OF_PERICENTER": 257.2666,
    "MEAN_ANOMALY": 102.7971,
    "EPHEMERIS_TYPE": 0,
    "CLASSIFICATION_TYPE": "U",
    "NORAD_CAT_ID": 57966,
    "ELEMENT_SET_NO": 999,
    "REV_AT_EPOCH": 11791,
    "BSTAR": 0.00030214,
    "MEAN_MOTION_DOT": 3.881e-05,
    "MEAN_MOTION_DDOT": 0.0,
    "TLE_LINE1": "1 57966U 23151C   25315.21048018  .00003881  00000+0  30214-3 0  9997",
    "TLE_LINE2": "2 57966  43.0080 262.3716 0001836 257.2666 102.7971 15.02543345117917",
    "COMMENT": "Grouped by shell and plane from TLE"
  },
  {
    "OBJECT_NAME": "STARLINK-30528",
    "OBJECT_ID": "23151D",
    "EPOCH": "2025-11-11T06:34:03.207072",
    "MEAN_MOTION": 15.02540542,
    "ECCENTRICITY": 9.44e-05,
    "INCLINATION": 43.002,
    "RA_OF_ASC_NODE": 261.9884,
    "ARG_OF_PERICENTER": 263.3588,
    "MEAN_ANOMALY": 96.7147,
    "EPHEMERIS_TYPE": 0,
    "CLASSIFICATION_TYPE": "U",
    "NORAD_CAT_ID": 57967,
    "ELEMENT_SET_NO": 999,
    "REV_AT_EPOCH": 11792,
    "BSTAR": 0.00036317,
    "MEAN_MOTION_DOT": 4.706e-05,
    "MEAN_MOTION_DDOT": 0.0,
    "TLE_LINE1": "1 57967U 23151D   25315.27364823  .00004706  00000+0  36317-3 0  9996",
    "TLE_LINE2": "2 57967  43.0020 261.9884 0000944 263.3588  96.7147 15.02540542117927",
    "COMMENT": "Grouped by shell and plane from TLE"
  },
  {
    "OBJECT_NAME": "STARLINK-30495",
    "OBJECT_ID": "23151E",
    "EPOCH": "2025-11-11T05:41:28.586688",
    "MEAN_MOTION": 15.02538998,
    "ECCENTRICITY": 0.0001185,
    "INCLINATION": 43.0028,
    "RA_OF_ASC_NODE": 262.5688,
    "ARG_OF_PERICENTER": 273.1546,
    "MEAN_ANOMALY": 86.916,
    "EPHEMERIS_TYPE": 0,
    "CLASSIFICATION_TYPE": "U",
    "NORAD_CAT_ID": 57968,
    "ELEMENT_SET_NO": 999,
    "REV_AT_EPOCH": 11791,
    "BSTAR": 0.00020053,
    "MEAN_MOTION_DOT": 2.506e-05,
    "MEAN_MOTION_DDOT": 0.0,
    "TLE_LINE1": "1 57968U 23151E   25315.23713642  .00002506  00000+0  20053-3 0  9996",
    "TLE_LINE2": "2 57968  43.0028 262.5688 0001185 273.1546  86.9160 15.02538998117913",
    "COMMENT": "Grouped by shell and plane from TLE"
  }
]